[{"OBJECT_NAME":"LEO EXPRESS 1","OBJECT_ID":"2023-174AX","EPOCH":"2026-03-09T18:25:46.135776","MEAN_MOTION":15.32756831,"ECCENTRICITY":0.00787345,"INCLINATION":97.5222,"RA_OF_ASC_NODE":152.4092,"ARG_OF_PERICENTER":115.921,"MEAN_ANOMALY":245.0174,"EPHEMERIS_TYPE":0,"CLASSIFICATION_TYPE":"U","NORAD_CAT_ID":58301,"ELEMENT_SET_NO":999,"REV_AT_EPOCH":12965,"BSTAR":0.00049741019,"MEAN_MOTION_DOT":0.00017303,"MEAN_MOTION_DDOT":0},{"OBJECT_NAME":"YAOGAN-43 02B","OBJECT_ID":"2024-156B","EPOCH":"2026-03-09T09:55:42.611232","MEAN_MOTION":15.23399653,"ECCENTRICITY":0.00021542,"INCLINATION":34.9944,"RA_OF_ASC_NODE":105.5294,"ARG_OF_PERICENTER":182.9946,"MEAN_ANOMALY":177.0756,"EPHEMERIS_TYPE":0,"CLASSIFICATION_TYPE":"U","NORAD_CAT_ID":60946,"ELEMENT_SET_NO":999,"REV_AT_EPOCH":8422,"BSTAR":0.00062307708,"MEAN_MOTION_DOT":0.00015184,"MEAN_MOTION_DDOT":0}]
